HIMAWARI-8              
1 40267U 14060A   24122.73352476 -.00000276  00000+0  00000+0 0  9992
2 40267   0.0240 190.8934 0001061 222.2030 211.7692  1.00268937 35079
